{"fetched_at":"2026-07-19T17:31:42.491Z","source":"https://celestrak.org/NORAD/elements/gp.php?NAME=LEGION&FORMAT=JSON","constellation":"maxar-legion","records":[{"OBJECT_NAME":"LEGION 1","OBJECT_ID":"2024-081A","EPOCH":"2026-07-19T05:21:18.591840","CLASSIFICATION_TYPE":"U","MEAN_MOTION":15.16858491,"ECCENTRICITY":0.00078056,"INCLINATION":97.5009,"RA_OF_ASC_NODE":277.7405,"ARG_OF_PERICENTER":252.9533,"MEAN_ANOMALY":107.0846,"EPHEMERIS_TYPE":0,"NORAD_CAT_ID":59625,"ELEMENT_SET_NO":999,"REV_AT_EPOCH":12239,"BSTAR":0.000090688029,"MEAN_MOTION_DOT":0.00001718,"MEAN_MOTION_DDOT":0},{"OBJECT_NAME":"LEGION 2","OBJECT_ID":"2024-081B","EPOCH":"2026-07-19T06:05:08.978496","CLASSIFICATION_TYPE":"U","MEAN_MOTION":15.16838144,"ECCENTRICITY":0.00105383,"INCLINATION":97.5008,"RA_OF_ASC_NODE":277.8673,"ARG_OF_PERICENTER":218.0175,"MEAN_ANOMALY":142.0316,"EPHEMERIS_TYPE":0,"NORAD_CAT_ID":59626,"ELEMENT_SET_NO":999,"REV_AT_EPOCH":12240,"BSTAR":0.000095799009,"MEAN_MOTION_DOT":0.00001818,"MEAN_MOTION_DDOT":0},{"OBJECT_NAME":"LEGION 3","OBJECT_ID":"2024-146A","EPOCH":"2026-07-19T05:24:16.592256","CLASSIFICATION_TYPE":"U","MEAN_MOTION":15.15667826,"ECCENTRICITY":0.00078126,"INCLINATION":45.0014,"RA_OF_ASC_NODE":218.787,"ARG_OF_PERICENTER":356.0076,"MEAN_ANOMALY":4.0739,"EPHEMERIS_TYPE":0,"NORAD_CAT_ID":60452,"ELEMENT_SET_NO":999,"REV_AT_EPOCH":10688,"BSTAR":0.000071904603,"MEAN_MOTION_DOT":0.00001127,"MEAN_MOTION_DDOT":0},{"OBJECT_NAME":"LEGION 4","OBJECT_ID":"2024-146B","EPOCH":"2026-07-19T06:58:42.095136","CLASSIFICATION_TYPE":"U","MEAN_MOTION":15.15696782,"ECCENTRICITY":0.00091841,"INCLINATION":45.0023,"RA_OF_ASC_NODE":310.3031,"ARG_OF_PERICENTER":138.9826,"MEAN_ANOMALY":221.1744,"EPHEMERIS_TYPE":0,"NORAD_CAT_ID":60453,"ELEMENT_SET_NO":999,"REV_AT_EPOCH":10574,"BSTAR":0.00010153586,"MEAN_MOTION_DOT":0.00001703,"MEAN_MOTION_DDOT":0},{"OBJECT_NAME":"LEGION 5","OBJECT_ID":"2025-025A","EPOCH":"2026-07-19T05:23:48.440544","CLASSIFICATION_TYPE":"U","MEAN_MOTION":15.15716069,"ECCENTRICITY":0.00079008,"INCLINATION":45.0013,"RA_OF_ASC_NODE":129.614,"ARG_OF_PERICENTER":310.2079,"MEAN_ANOMALY":49.8107,"EPHEMERIS_TYPE":0,"NORAD_CAT_ID":62900,"ELEMENT_SET_NO":999,"REV_AT_EPOCH":7935,"BSTAR":0.0001082757,"MEAN_MOTION_DOT":0.00001835,"MEAN_MOTION_DDOT":0},{"OBJECT_NAME":"LEGION 6","OBJECT_ID":"2025-025B","EPOCH":"2026-07-18T13:33:31.774176","CLASSIFICATION_TYPE":"U","MEAN_MOTION":15.15701148,"ECCENTRICITY":0.0010702,"INCLINATION":45.0031,"RA_OF_ASC_NODE":42.2989,"ARG_OF_PERICENTER":293.9704,"MEAN_ANOMALY":66.0053,"EPHEMERIS_TYPE":0,"NORAD_CAT_ID":62901,"ELEMENT_SET_NO":999,"REV_AT_EPOCH":8039,"BSTAR":0.00010203,"MEAN_MOTION_DOT":0.00001713,"MEAN_MOTION_DDOT":0}]}
